CCSDS_OMM_VERS = 2.0
CREATION_DATE  = 
ORIGINATOR     = 

OBJECT_NAME    = STARLINK-35507
OBJECT_ID      = 2025-253J
CENTER_NAME    = EARTH
REF_FRAME      = TEME
TIME_SYSTEM    = UTC
MEAN_ELEMENT_THEORY = SGP/SGP4

EPOCH          = 2025-12-02T05:51:32.368032
MEAN_MOTION    = 15.50777938
ECCENTRICITY   = .0002596
INCLINATION    = 42.9999
RA_OF_ASC_NODE = 46.1060
ARG_OF_PERICENTER = 253.7936
MEAN_ANOMALY   = 106.2639

EPHEMERIS_TYPE = 0
CLASSIFICATION_TYPE = U
NORAD_CAT_ID   = 66327
ELEMENT_SET_NO = 999
REV_AT_EPOCH   = 530
BSTAR          = .2155E-2
MEAN_MOTION_DOT = .129109E-2
MEAN_MOTION_DDOT = 0

CCSDS_OMM_VERS = 2.0
CREATION_DATE  = 
ORIGINATOR     = 

OBJECT_NAME    = STARLINK-35460
OBJECT_ID      = 2025-253K
CENTER_NAME    = EARTH
REF_FRAME      = TEME
TIME_SYSTEM    = UTC
MEAN_ELEMENT_THEORY = SGP/SGP4

EPOCH          = 2025-12-01T14:19:31.564704
MEAN_MOTION    = 15.50606087
ECCENTRICITY   = .00018266
INCLINATION    = 43.0003
RA_OF_ASC_NODE = 49.8457
ARG_OF_PERICENTER = 291.6400
MEAN_ANOMALY   = 68.4265

EPHEMERIS_TYPE = 0
CLASSIFICATION_TYPE = U
NORAD_CAT_ID   = 66328
ELEMENT_SET_NO = 999
REV_AT_EPOCH   = 520
BSTAR          = .16742687E-2
MEAN_MOTION_DOT = .9923E-3
MEAN_MOTION_DDOT = 0

CCSDS_OMM_VERS = 2.0
CREATION_DATE  = 
ORIGINATOR     = 

OBJECT_NAME    = STARLINK-35505
OBJECT_ID      = 2025-253L
CENTER_NAME    = EARTH
REF_FRAME      = TEME
TIME_SYSTEM    = UTC
MEAN_ELEMENT_THEORY = SGP/SGP4

EPOCH          = 2025-12-02T05:52:02.295264
MEAN_MOTION    = 15.50171072
ECCENTRICITY   = .000215
INCLINATION    = 43.0001
RA_OF_ASC_NODE = 46.1098
ARG_OF_PERICENTER = 329.5242
MEAN_ANOMALY   = 30.5492

EPHEMERIS_TYPE = 0
CLASSIFICATION_TYPE = U
NORAD_CAT_ID   = 66329
ELEMENT_SET_NO = 999
REV_AT_EPOCH   = 530
BSTAR          = .25402E-2
MEAN_MOTION_DOT = .149376E-2
MEAN_MOTION_DDOT = 0

CCSDS_OMM_VERS = 2.0
CREATION_DATE  = 
ORIGINATOR     = 

OBJECT_NAME    = STARLINK-35512
OBJECT_ID      = 2025-253M
CENTER_NAME    = EARTH
REF_FRAME      = TEME
TIME_SYSTEM    = UTC
MEAN_ELEMENT_THEORY = SGP/SGP4

EPOCH          = 2025-12-02T20:00:03.000384
MEAN_MOTION    = 15.40774802
ECCENTRICITY   = .0001806
INCLINATION    = 43.0006
RA_OF_ASC_NODE = 42.8096
ARG_OF_PERICENTER = 283.2918
MEAN_ANOMALY   = 68.2017

EPHEMERIS_TYPE = 0
CLASSIFICATION_TYPE = U
NORAD_CAT_ID   = 66330
ELEMENT_SET_NO = 999
REV_AT_EPOCH   = 533
BSTAR          = -.27709E-2
MEAN_MOTION_DOT = -.114619E-2
MEAN_MOTION_DDOT = 0

CCSDS_OMM_VERS = 2.0
CREATION_DATE  = 
ORIGINATOR     = 

OBJECT_NAME    = STARLINK-35257
OBJECT_ID      = 2025-253N
CENTER_NAME    = EARTH
REF_FRAME      = TEME
TIME_SYSTEM    = UTC
MEAN_ELEMENT_THEORY = SGP/SGP4

EPOCH          = 2025-12-02T05:45:36.979776
MEAN_MOTION    = 15.50637590
ECCENTRICITY   = .0001229
INCLINATION    = 42.9998
RA_OF_ASC_NODE = 46.0726
ARG_OF_PERICENTER = 269.4284
MEAN_ANOMALY   = 90.6435

EPHEMERIS_TYPE = 0
CLASSIFICATION_TYPE = U
NORAD_CAT_ID   = 66331
ELEMENT_SET_NO = 999
REV_AT_EPOCH   = 530
BSTAR          = .14445E-2
MEAN_MOTION_DOT = .85511E-3
MEAN_MOTION_DDOT = 0

CCSDS_OMM_VERS = 2.0
CREATION_DATE  = 
ORIGINATOR     = 

OBJECT_NAME    = STARLINK-35322
OBJECT_ID      = 2025-253P
CENTER_NAME    = EARTH
REF_FRAME      = TEME
TIME_SYSTEM    = UTC
MEAN_ELEMENT_THEORY = SGP/SGP4

EPOCH          = 2025-12-02T05:48:04.239936
MEAN_MOTION    = 15.50671276
ECCENTRICITY   = .0000986
INCLINATION    = 43.0002
RA_OF_ASC_NODE = 46.0856
ARG_OF_PERICENTER = 282.8379
MEAN_ANOMALY   = 77.2371

EPHEMERIS_TYPE = 0
CLASSIFICATION_TYPE = U
NORAD_CAT_ID   = 66332
ELEMENT_SET_NO = 999
REV_AT_EPOCH   = 530
BSTAR          = .1523E-2
MEAN_MOTION_DOT = .90339E-3
MEAN_MOTION_DDOT = 0

CCSDS_OMM_VERS = 2.0
CREATION_DATE  = 
ORIGINATOR     = 

OBJECT_NAME    = STARLINK-35400
OBJECT_ID      = 2025-253Q
CENTER_NAME    = EARTH
REF_FRAME      = TEME
TIME_SYSTEM    = UTC
MEAN_ELEMENT_THEORY = SGP/SGP4

EPOCH          = 2025-12-02T05:46:06.661632
MEAN_MOTION    = 15.50632789
ECCENTRICITY   = .0001606
INCLINATION    = 43.0007
RA_OF_ASC_NODE = 46.0732
ARG_OF_PERICENTER = 261.2180
MEAN_ANOMALY   = 98.8498

EPHEMERIS_TYPE = 0
CLASSIFICATION_TYPE = U
NORAD_CAT_ID   = 66333
ELEMENT_SET_NO = 999
REV_AT_EPOCH   = 530
BSTAR          = .15089E-2
MEAN_MOTION_DOT = .89367E-3
MEAN_MOTION_DDOT = 0

CCSDS_OMM_VERS = 2.0
CREATION_DATE  = 
ORIGINATOR     = 

OBJECT_NAME    = STARLINK-35407
OBJECT_ID      = 2025-253R
CENTER_NAME    = EARTH
REF_FRAME      = TEME
TIME_SYSTEM    = UTC
MEAN_ELEMENT_THEORY = SGP/SGP4

EPOCH          = 2025-12-02T05:47:54.704832
MEAN_MOTION    = 15.50606846
ECCENTRICITY   = .000182
INCLINATION    = 43.0002
RA_OF_ASC_NODE = 46.0853
ARG_OF_PERICENTER = 277.7851
MEAN_ANOMALY   = 82.2803

EPHEMERIS_TYPE = 0
CLASSIFICATION_TYPE = U
NORAD_CAT_ID   = 66334
ELEMENT_SET_NO = 999
REV_AT_EPOCH   = 530
BSTAR          = .26112E-2
MEAN_MOTION_DOT = .156096E-2
MEAN_MOTION_DDOT = 0

CCSDS_OMM_VERS = 2.0
CREATION_DATE  = 
ORIGINATOR     = 

OBJECT_NAME    = STARLINK-35417
OBJECT_ID      = 2025-253S
CENTER_NAME    = EARTH
REF_FRAME      = TEME
TIME_SYSTEM    = UTC
MEAN_ELEMENT_THEORY = SGP/SGP4

EPOCH          = 2025-12-02T20:00:03.000384
MEAN_MOTION    = 15.40662438
ECCENTRICITY   = .000139
INCLINATION    = 43.0009
RA_OF_ASC_NODE = 42.8974
ARG_OF_PERICENTER = 277.3229
MEAN_ANOMALY   = 36.9782

EPHEMERIS_TYPE = 0
CLASSIFICATION_TYPE = U
NORAD_CAT_ID   = 66335
ELEMENT_SET_NO = 999
REV_AT_EPOCH   = 533
BSTAR          = .45327E-3
MEAN_MOTION_DOT = .18653E-3
MEAN_MOTION_DDOT = 0

CCSDS_OMM_VERS = 2.0
CREATION_DATE  = 
ORIGINATOR     = 

OBJECT_NAME    = STARLINK-35404
OBJECT_ID      = 2025-253T
CENTER_NAME    = EARTH
REF_FRAME      = TEME
TIME_SYSTEM    = UTC
MEAN_ELEMENT_THEORY = SGP/SGP4

EPOCH          = 2025-12-02T05:45:07.240032
MEAN_MOTION    = 15.50663874
ECCENTRICITY   = .0001575
INCLINATION    = 42.9999
RA_OF_ASC_NODE = 46.0686
ARG_OF_PERICENTER = 253.9948
MEAN_ANOMALY   = 106.0739

EPHEMERIS_TYPE = 0
CLASSIFICATION_TYPE = U
NORAD_CAT_ID   = 66336
ELEMENT_SET_NO = 999
REV_AT_EPOCH   = 530
BSTAR          = .21834E-2
MEAN_MOTION_DOT = .130295E-2
MEAN_MOTION_DDOT = 0

CCSDS_OMM_VERS = 2.0
CREATION_DATE  = 
ORIGINATOR     = 

OBJECT_NAME    = STARLINK-34783
OBJECT_ID      = 2025-253U
CENTER_NAME    = EARTH
REF_FRAME      = TEME
TIME_SYSTEM    = UTC
MEAN_ELEMENT_THEORY = SGP/SGP4

EPOCH          = 2025-12-02T20:00:03.000384
MEAN_MOTION    = 15.40669200
ECCENTRICITY   = .0001403
INCLINATION    = 43.0008
RA_OF_ASC_NODE = 42.8371
ARG_OF_PERICENTER = 276.3732
MEAN_ANOMALY   = 62.7805

EPHEMERIS_TYPE = 0
CLASSIFICATION_TYPE = U
NORAD_CAT_ID   = 66337
ELEMENT_SET_NO = 999
REV_AT_EPOCH   = 538
BSTAR          = .48404E-3
MEAN_MOTION_DOT = .19948E-3
MEAN_MOTION_DDOT = 0

CCSDS_OMM_VERS = 2.0
CREATION_DATE  = 
ORIGINATOR     = 

OBJECT_NAME    = STARLINK-35477
OBJECT_ID      = 2025-253V
CENTER_NAME    = EARTH
REF_FRAME      = TEME
TIME_SYSTEM    = UTC
MEAN_ELEMENT_THEORY = SGP/SGP4

EPOCH          = 2025-12-02T20:00:03.000384
MEAN_MOTION    = 15.40663486
ECCENTRICITY   = .0000985
INCLINATION    = 43.0007
RA_OF_ASC_NODE = 42.9291
ARG_OF_PERICENTER = 255.2676
MEAN_ANOMALY   = 46.5646

EPHEMERIS_TYPE = 0
CLASSIFICATION_TYPE = U
NORAD_CAT_ID   = 66338
ELEMENT_SET_NO = 999
REV_AT_EPOCH   = 543
BSTAR          = .54268E-3
MEAN_MOTION_DOT = .22404E-3
MEAN_MOTION_DDOT = 0

